[{"OBJECT_NAME":"STARLINK-5383","OBJECT_ID":"2022-177H","EPOCH":"2026-03-09T05:03:48.190752","MEAN_MOTION":15.02531322,"ECCENTRICITY":0.00012188,"INCLINATION":43.0016,"RA_OF_ASC_NODE":135.8997,"ARG_OF_PERICENTER":263.6559,"MEAN_ANOMALY":96.4144,"EPHEMERIS_TYPE":0,"CLASSIFICATION_TYPE":"U","NORAD_CAT_ID":54827,"ELEMENT_SET_NO":999,"REV_AT_EPOCH":17689,"BSTAR":-3.668191e-6,"MEAN_MOTION_DOT":-2.53e-6,"MEAN_MOTION_DDOT":0},{"OBJECT_NAME":"DEORBITSAIL","OBJECT_ID":"2015-032E","EPOCH":"2026-03-09T13:39:47.460384","MEAN_MOTION":15.02284863,"ECCENTRICITY":0.0012066,"INCLINATION":97.5981,"RA_OF_ASC_NODE":287.3228,"ARG_OF_PERICENTER":211.0438,"MEAN_ANOMALY":149.0075,"EPHEMERIS_TYPE":0,"CLASSIFICATION_TYPE":"U","NORAD_CAT_ID":40719,"ELEMENT_SET_NO":999,"REV_AT_EPOCH":57628,"BSTAR":0.0007398,"MEAN_MOTION_DOT":9.73e-5,"MEAN_MOTION_DDOT":0}]
